{
    "links": {
        "self": "http://www.neowsapp.com/rest/v1/neo/54017142?api_key=iIulBulltgU6a56xZRHN4H3l9WmuAYTsLGpBGhQ2"
    },
    "id": "54017142",
    "neo_reference_id": "54017142",
    "name": "(2020 JL3)",
    "designation": "2020 JL3",
    "nasa_jpl_url": "http://ssd.jpl.nasa.gov/sbdb.cgi?sstr=54017142",
    "absolute_magnitude_h": 21.809,
    "estimated_diameter": {
        "kilometers": {
            "estimated_diameter_min": 0.1155460162,
            "estimated_diameter_max": 0.2583687468
        },
        "meters": {
            "estimated_diameter_min": 115.5460162413,
            "estimated_diameter_max": 258.3687468449
        },
        "miles": {
            "estimated_diameter_min": 0.0717969437,
            "estimated_diameter_max": 0.1605428466
        },
        "feet": {
            "estimated_diameter_min": 379.0879919252,
            "estimated_diameter_max": 847.6665193987
        }
    },
    "is_potentially_hazardous_asteroid": false,
    "close_approach_data": [
        {
            "close_approach_date": "2018-05-15",
            "close_approach_date_full": "2018-May-15 03:27",
            "epoch_date_close_approach": 1526354820000,
            "relative_velocity": {
                "kilometers_per_second": "34.3470785015",
                "kilometers_per_hour": "123649.4826053579",
                "miles_per_hour": "76830.9798999792"
            },
            "miss_distance": {
                "astronomical": "0.4079968794",
                "lunar": "158.7107860866",
                "kilometers": "61035464.124886878",
                "miles": "37925678.7701117964"
            },
            "orbiting_body": "Earth"
        },
        {
            "close_approach_date": "2020-06-15",
            "close_approach_date_full": "2020-Jun-15 15:59",
            "epoch_date_close_approach": 1592236740000,
            "relative_velocity": {
                "kilometers_per_second": "15.7477432337",
                "kilometers_per_hour": "56691.8756414651",
                "miles_per_hour": "35226.1268395537"
            },
            "miss_distance": {
                "astronomical": "0.2443127785",
                "lunar": "95.0376708365",
                "kilometers": "36548671.277381795",
                "miles": "22710291.241566971"
            },
            "orbiting_body": "Earth"
        },
        {
            "close_approach_date": "2027-01-10",
            "close_approach_date_full": "2027-Jan-10 15:46",
            "epoch_date_close_approach": 1799595960000,
            "relative_velocity": {
                "kilometers_per_second": "29.9075441628",
                "kilometers_per_hour": "107667.1589859238",
                "miles_per_hour": "66900.1855376702"
            },
            "miss_distance": {
                "astronomical": "0.2710315858",
                "lunar": "105.4312868762",
                "kilometers": "40545747.938402246",
                "miles": "25193959.5094971548"
            },
            "orbiting_body": "Earth"
        }
    ],
    "orbital_data": {
        "orbit_id": "8",
        "orbit_determination_date": "2020-08-22 06:34:00",
        "first_observation_date": "2020-05-15",
        "last_observation_date": "2020-06-10",
        "data_arc_in_days": 26,
        "observations_used": 38,
        "orbit_uncertainty": "7",
        "minimum_orbit_intersection": ".0897006",
        "jupiter_tisserand_invariant": "3.969",
        "epoch_osculation": "2459000.5",
        "eccentricity": ".6967742617662275",
        "semi_major_axis": "1.641759467750236",
        "inclination": "6.853877144030506",
        "ascending_node_longitude": "25.02916533123167",
        "orbital_period": "768.3564141702482",
        "perihelion_distance": ".4978237266108507",
        "perihelion_argument": "331.7101255731101",
        "aphelion_distance": "2.785695208889621",
        "perihelion_time": "2459066.857803897084",
        "mean_anomaly": "328.9092080675246",
        "mean_motion": ".4685325629626789",
        "equinox": "J2000",
        "orbit_class": {
            "orbit_class_type": "APO",
            "orbit_class_description": "Near-Earth asteroid orbits which cross the Earth’s orbit similar to that of 1862 Apollo",
            "orbit_class_range": "a (semi-major axis) > 1.0 AU; q (perihelion) < 1.017 AU"
        }
    },
    "is_sentry_object": false
}